FENGYUN 1C DEB          
1 31068U 99025BFN 17346.35312348 -.00000124  00000-0 -43250-4 0  9990
2 31068  98.8282  43.1152 0169623 104.9633 257.0382 14.07272823555071
